NORAD_CAT_ID,OBJECT_NAME,OBJECT_TYPE,EPOCH,MEAN_MOTION,ECCENTRICITY,INCLINATION,RA_OF_ASC_NODE,ARG_OF_PERICENTER,MEAN_ANOMALY,BSTAR,MEAN_MOTION_DOT,MEAN_MOTION_DDOT,TLE_LINE0,TLE_LINE1,TLE_LINE2,SEMIMAJOR_AXIS,PERIOD,APOGEE,PERIGEE,DECAYED
55770.0,STARLINK-5557,PAYLOAD,2023-11-11 10:40:45,14.98333848,0.000265,70.0002,205.7354,265.8536,94.232,-5.3774e-05,-7.35e-06,0.0,0 STARLINK-5557,1 55770U 23028AF  23315.44496874 -.00000735  00000-0 -53774-4 0  9996,2 55770  70.0002 205.7354 0002650 265.8536  94.2320 14.98333848 39327,6950.181,96.107,573.888,570.204,0.0
55770.0,STARLINK-5557,PAYLOAD,2023-11-11 20:17:35,14.98308769,0.0002576,70.0,204.7262,267.6386,92.4478,-0.00026123,-3.207e-05,0.0,0 STARLINK-5557,1 55770U 23028AF  23315.84555397 -.00003207  00000-0 -26123-3 0  9990,2 55770  70.0000 204.7262 0002576 267.6386  92.4478 14.98308769 39375,6950.259,96.108,573.914,570.333,0.0
55770.0,STARLINK-5557,PAYLOAD,2023-11-11 21:53:44,14.9830831,0.0002587,70.0,204.5577,267.1216,92.9647,-0.00026241,-3.221e-05,0.0,0 STARLINK-5557,1 55770U 23028AF  23315.91231493 -.00003221  00000-0 -26241-3 0  9993,2 55770  70.0000 204.5577 0002587 267.1216  92.9647 14.98308310 39398,6950.26,96.108,573.923,570.327,0.0
55770.0,STARLINK-5557,PAYLOAD,2023-11-12 02:42:08,14.98307415,0.0002629,70.0001,204.0534,269.3364,90.7493,-0.00025718,-3.158e-05,0.0,0 STARLINK-5557,1 55770U 23028AF  23316.11259816 -.00003158  00000-0 -25718-3 0  9992,2 55770  70.0001 204.0534 0002629 269.3364  90.7493 14.98307415 39426,6950.263,96.108,573.955,570.301,0.0
55770.0,STARLINK-5557,PAYLOAD,2023-11-12 18:43:27,14.98328401,0.0002578,70.0005,202.3708,272.4438,87.6426,2.4881e-05,2.04e-06,0.0,0 STARLINK-5557,1 55770U 23028AF  23316.78018190  .00000204  00000-0  24881-4 0  9991,2 55770  70.0005 202.3708 0002578 272.4438  87.6426 14.98328401 39513,6950.198,96.107,573.855,570.271,0.0
55770.0,STARLINK-5557,PAYLOAD,2023-11-12 21:55:43,14.98331028,0.000249,70.0006,202.0337,273.78,86.3074,5.7537e-05,5.94e-06,0.0,0 STARLINK-5557,1 55770U 23028AF  23316.91369967  .00000594  00000-0  57537-4 0  9993,2 55770  70.0006 202.0337 0002490 273.7800  86.3074 14.98331028 39546,6950.19,96.107,573.785,570.324,0.0
55770.0,STARLINK-5557,PAYLOAD,2023-11-13 02:44:07,14.98333351,0.0002202,70.0011,201.5301,259.7287,100.3624,0.00011228,1.247e-05,0.0,0 STARLINK-5557,1 55770U 23028AF  23317.11397626  .00001247  00000-0  11228-3 0  9991,2 55770  70.0011 201.5301 0002202 259.7287 100.3624 14.98333351 39562,6950.183,96.107,573.578,570.517,0.0
55770.0,STARLINK-5557,PAYLOAD,2023-11-14 09:10:40,14.98332726,0.0002392,70.0005,198.3318,269.647,90.4415,0.00020076,2.303e-05,0.0,0 STARLINK-5557,1 55770U 23028AF  23318.38241048  .00002303  00000-0  20076-3 0  9992,2 55770  70.0005 198.3318 0002392 269.6470  90.4415 14.98332726 39753,6950.184,96.107,573.712,570.387,0.0
55770.0,STARLINK-5557,PAYLOAD,2023-11-14 21:59:44,14.98337543,0.0002412,70.0005,196.9849,273.4877,86.6006,-6.3456e-05,-8.5e-06,0.0,0 STARLINK-5557,1 55770U 23028AF  23318.91649203 -.00000850  00000-0 -63456-4 0  9993,2 55770  70.0005 196.9849 0002412 273.4877  86.6006 14.98337543 39848,6950.17,96.107,573.711,570.358,0.0
55770.0,STARLINK-5557,PAYLOAD,2023-11-15 02:48:09,14.98337367,0.000242,70.0005,196.4802,271.8529,88.2353,-6.1985e-05,-8.33e-06,0.0,0 STARLINK-5557,1 55770U 23028AF  23319.11677090 -.00000833  00000-0 -61985-4 0  9997,2 55770  70.0005 196.4802 0002420 271.8529  88.2353 14.98337367 39877,6950.17,96.107,573.717,570.353,0.0
55770.0,STARLINK-5557,PAYLOAD,2023-11-15 22:01:45,14.98332716,0.0002253,70.0017,194.4607,269.4238,90.6663,-9.343e-05,-1.208e-05,0.0,0 STARLINK-5557,1 55770U 23028AF  23319.91789022 -.00001208  00000-0 -93430-4 0  9991,2 55770  70.0017 194.4607 0002253 269.4238  90.6663 14.98332716 39992,6950.184,96.107,573.615,570.484,0.0
55770.0,STARLINK-5557,PAYLOAD,2023-11-16 01:14:02,14.98330426,0.0002355,70.0006,194.1239,271.2675,88.8214,-0.00012682,-1.606e-05,0.0,0 STARLINK-5557,1 55770U 23028AF  23320.05141225 -.00001606  00000-0 -12682-3 0  9996,2 55770  70.0006 194.1239 0002355 271.2675  88.8214 14.98330426 40008,6950.192,96.107,573.693,570.42,0.0
55770.0,STARLINK-5557,PAYLOAD,2023-11-16 15:39:13,14.9833187,0.000256,69.9992,192.6075,271.1358,88.9508,2.6044e-05,2.18e-06,0.0,0 STARLINK-5557,1 55770U 23028AF  23320.65224473  .00000218  00000-0  26044-4 0  9993,2 55770  69.9992 192.6075 0002560 271.1358  88.9508 14.98331870 40095,6950.187,96.107,573.831,570.273,0.0
55770.0,STARLINK-5557,PAYLOAD,2023-11-16 22:03:46,14.98333028,0.0002545,69.9992,191.9338,270.0325,90.0543,4.9672e-05,5e-06,0.0,0 STARLINK-5557,1 55770U 23028AF  23320.91928274  .00000500  00000-0  49672-4 0  9998,2 55770  69.9992 191.9338 0002545 270.0325  90.0543 14.98333028 40140,6950.184,96.107,573.817,570.28,0.0
55770.0,STARLINK-5557,PAYLOAD,2023-11-17 09:16:42,14.98345106,0.0002483,69.9981,190.757,280.0831,80.0048,-0.00023465,-2.893e-05,0.0,0 STARLINK-5557,1 55770U 23028AF  23321.38660252 -.00002893  00000-0 -23465-3 0  9999,2 55770  69.9981 190.7570 0002483 280.0831  80.0048 14.98345106 40214,6950.146,96.106,573.737,570.285,0.0
55770.0,STARLINK-5557,PAYLOAD,2023-11-17 15:41:15,14.9832647,0.0002416,69.9995,190.0833,270.8491,89.2391,3.9787e-05,3.82e-06,0.0,0 STARLINK-5557,1 55770U 23028AF  23321.65364660  .00000382  00000-0  39787-4 0  9997,2 55770  69.9995 190.0833 0002416 270.8491  89.2391 14.98326470 40247,6950.204,96.107,573.748,570.39,0.0
55770.0,STARLINK-5557,PAYLOAD,2023-11-17 22:05:47,14.98322002,0.0002514,69.9993,189.4099,271.2412,88.8459,9.357e-05,1.023e-05,0.0,0 STARLINK-5557,1 55770U 23028AF  23321.92068775  .00001023  00000-0  93570-4 0  9998,2 55770  69.9993 189.4099 0002514 271.2412  88.8459 14.98322002 40290,6950.218,96.108,573.83,570.335,0.0
55770.0,STARLINK-5557,PAYLOAD,2023-11-18 01:18:03,14.98326964,0.0002454,69.9992,189.0734,269.7041,90.3836,1.4123e-06,-7.6e-07,0.0,0 STARLINK-5557,1 55770U 23028AF  23322.05420806 -.00000076  00000-0  14123-5 0  9996,2 55770  69.9992 189.0734 0002454 269.7041  90.3836 14.98326964 40315,6950.202,96.107,573.773,570.362,0.0
55770.0,STARLINK-5557,PAYLOAD,2023-11-18 22:07:48,14.98333136,0.0002477,69.999,186.8854,270.2277,89.8598,-1.0906e-05,-2.23e-06,0.0,0 STARLINK-5557,1 55770U 23028AF  23322.92208384 -.00000223  00000-0 -10906-4 0  9996,2 55770  69.9990 186.8854 0002477 270.2277  89.8598 14.98333136 40445,6950.183,96.107,573.77,570.327,0.0
55770.0,STARLINK-5557,PAYLOAD,2023-11-19 01:20:04,14.983335,0.0002461,69.9997,186.5488,270.9091,89.1786,-9.0525e-06,-2.01e-06,0.0,0 STARLINK-5557,1 55770U 23028AF  23323.05560338 -.00000201  00000-0 -90525-5 0  9993,2 55770  69.9997 186.5488 0002461 270.9091  89.1786 14.98333500 40454,6950.182,96.107,573.758,570.337,0.0
55770.0,STARLINK-5557,PAYLOAD,2023-11-19 07:44:36,14.98332524,0.0002441,69.9998,185.8756,271.4149,88.673,9.0101e-06,1.5e-07,0.0,0 STARLINK-5557,1 55770U 23028AF  23323.32264313  .00000015  00000-0  90101-5 0  9998,2 55770  69.9998 185.8756 0002441 271.4149  88.6730 14.98332524 40507,6950.185,96.107,573.747,570.354,0.0
55770.0,STARLINK-5557,PAYLOAD,2023-11-19 22:09:48,14.98333012,0.0002482,69.9993,184.3607,270.7403,89.3471,6.0759e-05,6.32e-06,0.0,0 STARLINK-5557,1 55770U 23028AF  23323.92348020  .00000632  00000-0  60759-4 0  9992,2 55770  69.9993 184.3607 0002482 270.7403  89.3471 14.98333012 40593,6950.184,96.107,573.774,570.324,0.0
55770.0,STARLINK-5557,PAYLOAD,2023-11-20 07:46:37,14.98331509,0.0002472,69.9992,183.3507,271.2912,88.7964,2.9024e-05,2.53e-06,0.0,0 STARLINK-5557,1 55770U 23028AF  23324.32404120  .00000253  00000-0  29024-4 0  9990,2 55770  69.9992 183.3507 0002472 271.2912  88.7964 14.98331509 40645,6950.188,96.107,573.771,570.335,0.0
55770.0,STARLINK-5557,PAYLOAD,2023-11-20 12:35:01,14.9833112,0.0002421,69.9993,182.846,271.5968,88.4914,6.8726e-07,-8.5e-07,0.0,0 STARLINK-5557,1 55770U 23028AF  23324.52432208 -.00000085  00000-0  68726-6 0  9998,2 55770  69.9993 182.8460 0002421 271.5968  88.4914 14.98331120 40681,6950.189,96.107,573.737,570.372,0.0
55770.0,STARLINK-5557,PAYLOAD,2023-11-20 22:11:49,14.98331524,0.0002441,69.9993,181.8363,269.4898,90.5981,-8.1421e-06,-1.9e-06,0.0,0 STARLINK-5557,1 55770U 23028AF  23324.92488151 -.00000190  00000-0 -81421-5 0  9994,2 55770  69.9993 181.8363 0002441 269.4898  90.5981 14.98331524 40745,6950.188,96.107,573.75,570.357,0.0
55770.0,STARLINK-5557,PAYLOAD,2023-11-21 07:48:38,14.98329533,0.0002445,69.9992,180.8264,270.7406,89.3473,-3.079e-05,-4.6e-06,0.0,0 STARLINK-5557,1 55770U 23028AF  23325.32544297 -.00000460  00000-0 -30790-4 0  9995,2 55770  69.9992 180.8264 0002445 270.7406  89.3473 14.98329533 40791,6950.194,96.107,573.759,570.36,0.0
55770.0,STARLINK-5557,PAYLOAD,2023-11-21 14:13:10,14.9832836,0.0002395,69.9992,180.1533,270.7515,89.337,-6.6387e-05,-8.85e-06,0.0,0 STARLINK-5557,1 55770U 23028AF  23325.59248494 -.00000885  00000-0 -66387-4 0  9996,2 55770  69.9992 180.1533 0002395 270.7515  89.3370 14.98328360 40847,6950.198,96.107,573.728,570.398,0.0
55770.0,STARLINK-5557,PAYLOAD,2023-11-21 20:37:42,14.9832973,0.0002394,69.9991,179.4801,266.4138,93.6747,-7.6645e-05,-1.007e-05,0.0,0 STARLINK-5557,1 55770U 23028AF  23325.85952438 -.00001007  00000-0 -76645-4 0  9990,2 55770  69.9991 179.4801 0002394 266.4138  93.6747 14.98329730 40889,6950.194,96.107,573.723,570.395,0.0
55770.0,STARLINK-5557,PAYLOAD,2023-11-21 23:49:58,14.98331105,0.0002284,69.9992,179.1435,261.3565,98.7335,-4.3071e-05,-6.07e-06,0.0,0 STARLINK-5557,1 55770U 23028AF  23325.99304234 -.00000607  00000-0 -43071-4 0  9992,2 55770  69.9992 179.1435 0002284 261.3565  98.7335 14.98331105 40907,6950.189,96.107,573.642,570.467,0.0
55770.0,STARLINK-5557,PAYLOAD,2023-11-22 19:03:35,14.98331768,0.0002509,69.999,177.1228,271.8867,88.2005,0.00010639,1.177e-05,0.0,0 STARLINK-5557,1 55770U 23028AF  23326.79415671  .00001177  00000-0  10639-3 0  9993,2 55770  69.9990 177.1228 0002509 271.8867  88.2005 14.98331768 41010,6950.187,96.107,573.796,570.309,0.0
